NORAD_CAT_ID,OBJECT_NAME,OBJECT_TYPE,EPOCH,MEAN_MOTION,ECCENTRICITY,INCLINATION,RA_OF_ASC_NODE,ARG_OF_PERICENTER,MEAN_ANOMALY,BSTAR,MEAN_MOTION_DOT,MEAN_MOTION_DDOT,TLE_LINE0,TLE_LINE1,TLE_LINE2,SEMIMAJOR_AXIS,PERIOD,APOGEE,PERIGEE,DECAYED
54194.0,STARLINK-5271,PAYLOAD,2023-05-08 20:41:25,15.08847721,9.61e-05,53.2164,324.0942,83.7821,276.328,0.00016537,2.346e-05,0.0,0 STARLINK-5271,1 54194U 22141AP  23128.86209718  .00002346  00000-0  16537-3 0  9990,2 54194  53.2164 324.0942 0000961  83.7821 276.3280 15.08847721 29625,6917.857,95.437,540.387,539.057,0.0
54194.0,STARLINK-5271,PAYLOAD,2023-05-09 06:13:44,15.0884039,0.0001234,53.217,322.3129,65.9555,294.1567,0.0001376,1.903e-05,0.0,0 STARLINK-5271,1 54194U 22141AP  23129.25954175  .00001903  00000-0  13760-3 0  9991,2 54194  53.2170 322.3129 0001234  65.9555 294.1567 15.08840390 29913,6917.879,95.438,540.598,538.891,0.0
54194.0,STARLINK-5271,PAYLOAD,2023-05-10 06:04:31,15.08842177,9.2e-05,53.2167,317.8481,85.9459,274.1638,0.00016776,2.383e-05,0.0,0 STARLINK-5271,1 54194U 22141AP  23130.25314337  .00002383  00000-0  16776-3 0  9996,2 54194  53.2167 317.8481 0000920  85.9459 274.1638 15.08842177 29838,6917.874,95.437,540.375,539.102,0.0
54194.0,STARLINK-5271,PAYLOAD,2023-05-10 18:47:36,15.08847191,9.29e-05,53.2167,315.4693,112.7927,247.3164,0.00011703,1.576e-05,0.0,0 STARLINK-5271,1 54194U 22141AP  23130.78306065  .00001576  00000-0  11703-3 0  9991,2 54194  53.2167 315.4693 0000929 112.7927 247.3164 15.08847191 30148,6917.858,95.437,540.366,539.081,0.0
54194.0,STARLINK-5271,PAYLOAD,2023-05-10 20:22:59,15.08848409,9.51e-05,53.2168,315.1722,90.7586,269.3515,0.00016363,2.318e-05,0.0,0 STARLINK-5271,1 54194U 22141AP  23130.84930090  .00002318  00000-0  16363-3 0  9991,2 54194  53.2168 315.1722 0000951  90.7586 269.3515 15.08848409 29921,6917.855,95.437,540.378,539.062,0.0
54194.0,STARLINK-5271,PAYLOAD,2023-05-11 15:27:37,15.08837622,9.63e-05,53.2179,311.6026,87.8108,272.2995,0.00012954,1.774e-05,0.0,0 STARLINK-5271,1 54194U 22141AP  23131.64418777  .00001774  00000-0  12954-3 0  9990,2 54194  53.2179 311.6026 0000963  87.8108 272.2995 15.08837622 30271,6917.888,95.438,540.419,539.086,0.0
54194.0,STARLINK-5271,PAYLOAD,2023-05-11 17:03:00,15.0883809,9.84e-05,53.2175,311.3046,89.9066,270.2038,0.00013869,1.92e-05,0.0,0 STARLINK-5271,1 54194U 22141AP  23131.71042743  .00001920  00000-0  13869-3 0  9993,2 54194  53.2175 311.3046 0000984  89.9066 270.2038 15.08838090 30057,6917.886,95.438,540.432,539.071,0.0
54194.0,STARLINK-5271,PAYLOAD,2023-05-11 18:38:25,15.08816524,0.0001133,53.2173,311.0073,101.3104,258.8016,0.00081091,0.00012633,0.0,0 STARLINK-5271,1 54194U 22141AP  23131.77667876  .00012633  00000-0  81091-3 0  9994,2 54194  53.2173 311.0073 0001133 101.3104 258.8016 15.08816524 30293,6917.952,95.439,540.601,539.033,0.0
54194.0,STARLINK-5271,PAYLOAD,2023-05-12 16:53:48,15.08839353,0.0001143,53.2182,306.8449,86.9194,273.1929,7.3443e-05,8.81e-06,0.0,0 STARLINK-5271,1 54194U 22141AP  23132.70402853  .00000881  00000-0  73443-4 0  9995,2 54194  53.2182 306.8449 0001143  86.9194 273.1929 15.08839353 30434,6917.882,95.438,540.538,538.957,0.0
54194.0,STARLINK-5271,PAYLOAD,2023-05-13 04:01:29,15.08842897,0.0001166,53.2181,304.7635,85.8349,274.2776,4.7184e-05,4.63e-06,0.0,0 STARLINK-5271,1 54194U 22141AP  23133.16770653  .00000463  00000-0  47184-4 0  9991,2 54194  53.2181 304.7635 0001166  85.8349 274.2776 15.08842897 30273,6917.872,95.437,540.543,538.93,0.0
54194.0,STARLINK-5271,PAYLOAD,2023-05-13 18:19:57,15.08844169,0.0001202,53.2183,302.0926,116.9756,243.1359,0.00010835,1.437e-05,0.0,0 STARLINK-5271,1 54194U 22141AP  23133.76386520  .00001437  00000-0  10835-3 0  9997,2 54194  53.2183 302.0926 0001202 116.9756 243.1359 15.08844169 30599,6917.868,95.437,540.564,538.901,0.0
54194.0,STARLINK-5271,PAYLOAD,2023-05-14 03:52:16,15.08843699,0.0001074,53.2179,300.3082,102.0124,258.0988,0.00011566,1.554e-05,0.0,0 STARLINK-5271,1 54194U 22141AP  23134.16130553  .00001554  00000-0  11566-3 0  9997,2 54194  53.2179 300.3082 0001074 102.0124 258.0988 15.08843699 30422,6917.869,95.437,540.477,538.991,0.0
54194.0,STARLINK-5271,PAYLOAD,2023-05-14 19:46:08,15.08838475,0.0001336,53.2193,297.335,113.2311,246.8822,5.9896e-06,-1.93e-06,0.0,0 STARLINK-5271,1 54194U 22141AP  23134.82371240 -.00000193  00000-0  59896-5 0  9999,2 54194  53.2193 297.3350 0001336 113.2311 246.8822 15.08838475 30758,6917.885,95.438,540.674,538.826,0.0
54194.0,STARLINK-5271,PAYLOAD,2023-05-15 10:04:37,15.08837941,0.0001193,53.2178,294.6565,104.3083,255.8042,5.7262e-05,6.24e-06,0.0,0 STARLINK-5271,1 54194U 22141AP  23135.41987303  .00000624  00000-0  57262-4 0  9990,2 54194  53.2178 294.6565 0001193 104.3083 255.8042 15.08837941 30613,6917.887,95.438,540.577,538.926,0.0
54194.0,STARLINK-5271,PAYLOAD,2023-05-15 16:26:09,15.08842555,0.0001163,53.218,293.4671,102.6345,257.4777,1.1301e-05,-1.08e-06,0.0,0 STARLINK-5271,1 54194U 22141AP  23135.68483210 -.00000108  00000-0  11301-4 0  9999,2 54194  53.2180 293.4671 0001163 102.6345 257.4777 15.08842555 30654,6917.873,95.437,540.542,538.933,0.0
54194.0,STARLINK-5271,PAYLOAD,2023-05-16 19:27:43,15.08838127,0.0001197,53.2175,288.4113,96.166,263.9469,6.3102e-05,7.17e-06,0.0,0 STARLINK-5271,1 54194U 22141AP  23136.81091544  .00000717  00000-0  63102-4 0  9991,2 54194  53.2175 288.4113 0001197  96.1660 263.9469 15.08838127 31052,6917.886,95.438,540.579,538.923,0.0
54194.0,STARLINK-5271,PAYLOAD,2023-05-17 16:07:43,15.08839212,0.0001086,53.217,284.545,84.1223,275.9893,6.1506e-05,6.91e-06,0.0,0 STARLINK-5271,1 54194U 22141AP  23137.67203625  .00000691  00000-0  61506-4 0  9998,2 54194  53.2170 284.5450 0001086  84.1223 275.9893 15.08839212 30955,6917.883,95.438,540.499,538.997,0.0
54194.0,STARLINK-5271,PAYLOAD,2023-05-18 03:15:25,15.08841516,0.0001116,53.2176,282.4633,84.9313,275.1806,8.3838e-05,1.047e-05,0.0,0 STARLINK-5271,1 54194U 22141AP  23138.13571382  .00001047  00000-0  83838-4 0  9996,2 54194  53.2176 282.4633 0001116  84.9313 275.1806 15.08841516 31253,6917.876,95.437,540.513,538.969,0.0
54194.0,STARLINK-5271,PAYLOAD,2023-05-18 19:09:16,15.08841642,0.0001135,53.2174,279.4898,84.4637,275.6484,0.00010513,1.386e-05,0.0,0 STARLINK-5271,1 54194U 22141AP  23138.79811262  .00001386  00000-0  10513-3 0  9997,2 54194  53.2174 279.4898 0001135  84.4637 275.6484 15.08841642 31128,6917.875,95.437,540.526,538.955,0.0
54194.0,STARLINK-5271,PAYLOAD,2023-05-19 12:38:31,15.08838518,0.0001147,53.2175,276.2172,90.6163,269.496,4.2568e-05,3.9e-06,0.0,0 STARLINK-5271,1 54194U 22141AP  23139.52675661  .00000390  00000-0  42568-4 0  9990,2 54194  53.2175 276.2172 0001147  90.6163 269.4960 15.08838518 31460,6917.885,95.438,540.543,538.956,0.0
54194.0,STARLINK-5271,PAYLOAD,2023-05-20 15:40:03,15.08852018,0.0001203,53.2172,271.1632,82.4509,277.662,0.00020016,2.9e-05,0.0,0 STARLINK-5271,1 54194U 22141AP  23140.65282267  .00002900  00000-0  20016-3 0  9994,2 54194  53.2172 271.1632 0001203  82.4509 277.6620 15.08852018 31632,6917.844,95.437,540.541,538.876,0.0
54194.0,STARLINK-5271,PAYLOAD,2023-05-21 01:12:23,15.08841547,0.0001202,53.2176,269.3778,90.2713,269.8417,8.2202e-05,1.021e-05,0.0,0 STARLINK-5271,1 54194U 22141AP  23141.05027067  .00001021  00000-0  82202-4 0  9993,2 54194  53.2176 269.3778 0001202  90.2713 269.8417 15.08841547 31697,6917.876,95.437,540.572,538.909,0.0
54194.0,STARLINK-5271,PAYLOAD,2023-05-21 07:33:56,15.08836856,0.000126,53.217,268.1933,100.6213,259.4921,6.0572e-05,6.76e-06,0.0,0 STARLINK-5271,1 54194U 22141AP  23141.31523561  .00000676  00000-0  60572-4 0  9993,2 54194  53.2170 268.1933 0001260 100.6213 259.4921 15.08836856 31508,6917.89,95.438,540.627,538.883,0.0
54194.0,STARLINK-5271,PAYLOAD,2023-05-21 13:55:29,15.08834807,0.0001286,53.2172,266.9995,115.1291,244.9834,1.3701e-05,-7e-07,0.0,0 STARLINK-5271,1 54194U 22141AP  23141.58019867 -.00000070  00000-0  13701-4 0  9992,2 54194  53.2172 266.9995 0001286 115.1291 244.9834 15.08834807 31774,6917.896,95.438,540.651,538.872,0.0
54194.0,STARLINK-5271,PAYLOAD,2023-05-22 09:00:06,15.08865441,9.99e-05,53.2179,263.4311,91.5236,268.5871,-0.00037946,-6.326e-05,0.0,0 STARLINK-5271,1 54194U 22141AP  23142.37507768 -.00006326  00000-0 -37946-3 0  9999,2 54194  53.2179 263.4311 0000999  91.5236 268.5871 15.08865441 31895,6917.803,95.436,540.359,538.977,0.0
54194.0,STARLINK-5271,PAYLOAD,2023-05-22 15:21:39,15.08848523,0.0001166,53.2182,262.244,85.3215,274.791,-2.9201e-05,-7.53e-06,0.0,0 STARLINK-5271,1 54194U 22141AP  23142.64003491 -.00000753  00000-0 -29201-4 0  9997,2 54194  53.2182 262.2440 0001166  85.3215 274.7910 15.08848523 31709,6917.854,95.437,540.526,538.913,0.0
54194.0,STARLINK-5271,PAYLOAD,2023-05-23 12:01:41,15.088193,9.65e-05,53.2187,258.3797,117.9267,242.1823,0.00026343,3.905e-05,0.0,0 STARLINK-5271,1 54194U 22141AP  23143.50116977  .00003905  00000-0  26343-3 0  9990,2 54194  53.2187 258.3797 0000965 117.9267 242.1823 15.08819300 32063,6917.944,95.439,540.476,539.141,0.0
54194.0,STARLINK-5271,PAYLOAD,2023-05-23 15:12:26,15.08835724,0.0001131,53.218,257.7812,87.6069,272.5053,0.00010035,1.309e-05,0.0,0 STARLINK-5271,1 54194U 22141AP  23143.63364385  .00001309  00000-0  10035-3 0  9999,2 54194  53.2180 257.7812 0001131  87.6069 272.5053 15.08835724 32088,6917.893,95.438,540.541,538.976,0.0
54194.0,STARLINK-5271,PAYLOAD,2023-05-24 13:27:50,15.08844539,0.0001165,53.2179,253.6195,89.3224,270.7902,9.8914e-05,1.287e-05,0.0,0 STARLINK-5271,1 54194U 22141AP  23144.56099963  .00001287  00000-0  98914-4 0  9997,2 54194  53.2179 253.6195 0001165  89.3224 270.7902 15.08844539 32227,6917.867,95.437,540.537,538.926,0.0
54194.0,STARLINK-5271,PAYLOAD,2023-05-25 16:29:23,15.08841204,0.000113,53.2171,248.5622,93.291,266.8211,5.9281e-05,6.56e-06,0.0,0 STARLINK-5271,1 54194U 22141AP  23145.68708289  .00000656  00000-0  59281-4 0  9992,2 54194  53.2171 248.5622 0001130  93.2910 266.8211 15.08841204 32398,6917.877,95.437,540.523,538.96,0.0
